{"fetched_at":"2026-03-29T02:12:04Z","count":15717,"tles":[{"name":"STARLINK-35274","line1":"1 66073U 25235R   26087.47879578  .00018215  00000+0  62568-3 0  9993","line2":"2 66073  53.1592 158.3209 0001282  80.6834 279.4312 15.30195976 25796","category":"Starlink"}]}